STARLINK-31144          
1 58682C 23211R   26113.54770833 -.00008452  00000+0 -30618-3 0  1137
2 58682  42.9994 191.5207 0001367 272.5077 314.1213 15.27576984    10
STARLINK-31095          
1 58683C 23211S   26113.53520833  .00030600  00000+0  11093-2 0  1133
2 58683  42.9989 192.3214 0001561 281.4413 292.0897 15.27533852    10
STARLINK-31107          
1 58684C 23211T   26113.60118056 -.00076180  00000+0 -27616-2 0  1135
2 58684  42.9996 192.0312 0001373 291.1753 250.3857 15.27588055    19
STARLINK-31121          
1 58685C 23211U   26113.59909722  .00016057  00000+0  58170-3 0  1137
2 58685  42.9996 191.2819 0001423 270.4932 217.8352 15.27564689    13
STARLINK-31137          
1 58686C 23211V   26113.58312500  .00002395  00000+0  86758-4 0  1133
2 58686  43.0027 191.8514 0001538 271.5446 290.7617 15.27566101    13
STARLINK-31106          
1 58689C 23211Y   26113.54701389 -.00090362  00000+0 -32731-2 0  1132
2 58689  43.0025 191.9542 0001429 282.1628 123.7904 15.27621604    19
STARLINK-11072 [DTC]    
1 58705C 24002A   26113.59562500 -.00078659  00000+0 -64828-3 0  1133
2 58705  53.1577  52.6467 0001064 103.6943 139.2911 15.69736070    13
STARLINK-11075 [DTC]    
1 58706C 24002B   26113.60534722  .00069947  00000+0  56486-3 0  1130
2 58706  53.1575  52.6547 0001123 103.4414 169.7403 15.70151492    13
STARLINK-11077 [DTC]    
1 58707C 24002C   26113.56437500 -.00100280  00000+0 -82592-3 0  1137
2 58707  53.1573  52.8999 0001240  95.9860 274.8268 15.69762579    14
STARLINK-11079 [DTC]    
1 58708C 24002D   26113.59145833 -.00057014  00000+0 -46973-3 0  1135
2 58708  53.1574  52.6066 0001120  95.5057 151.6481 15.69733299    16
STARLINK-11076 [DTC]    
1 58709C 24002E   26113.58034722 -.00076821  00000+0 -63260-3 0  1134
2 58709  53.1570  52.6100 0000900  93.2935 118.7638 15.69755440    17
STARLINK-11078 [DTC]    
1 58710C 24002F   26113.53937500 -.00087744  00000+0 -72263-3 0  1136
2 58710  53.1565  52.7556 0001192  89.9404 278.1831 15.69758027    16
STARLINK-31031          
1 58711C 24002G   26113.53729167 -.00017443  00000+0 -58793-3 0  1136
2 58711  53.1590  21.7535 0001294  90.3426 136.9498 15.30198126    17
STARLINK-31029          
1 58712C 24002H   26113.54215278  .00020676  00000+0  69690-3 0  1139
2 58712  53.1608  21.4272 0001287  87.6281 317.6882 15.30178983    17
STARLINK-30973          
1 58713C 24002J   26113.55256944 -.00027087  00000+0 -91278-3 0  1138
2 58713  53.1610  21.4474 0001287  95.1198 332.7092 15.30210109    14
STARLINK-31100          
1 58714C 24002K   26113.60256944  .00020251  00000+0  68252-3 0  1135
2 58714  53.1606  21.2469 0001250  93.9906 231.9882 15.30181747    17
STARLINK-31102          
1 58715C 24002L   26113.59840278  .00036040  00000+0  12159-2 0  1130
2 58715  53.1584  21.5256 0001253  90.9060  78.4351 15.30142271    15
STARLINK-31098          
1 58716C 24002M   26113.61090278  .00059942  00000+0  20209-2 0  1132
2 58716  53.1602  21.2299 0001149  99.0634 261.2496 15.30151595    13
STARLINK-31093          
1 58717C 24002N   26113.56993056  .00016197  00000+0  54594-3 0  1133
2 58717  53.1596  21.5152 0001305  91.8293   1.8889 15.30181019    10
STARLINK-31097          
1 58718C 24002P   26113.60812500  .00039186  00000+0  13207-2 0  1131
2 58718  53.1598  21.2879 0001370  93.4791 228.2230 15.30171952    19
STARLINK-31051          
1 58719C 24002Q   26113.55951389  .00008021  00000+0  27032-3 0  1131
2 58719  53.1594  21.5698 0001237  93.5241 291.1622 15.30189865    17
STARLINK-31027          
1 58720C 24002R   26113.59701389  .00156450  00000+0  16814-2 0  1135
2 58720  53.1448   9.8123 0011163 133.1811 151.7689 15.62954563    16
STARLINK-30972          
1 58721C 24002S   26113.58243056  .00015303  00000+0  51579-3 0  1136
2 58721  53.1610  21.3151 0001311  96.5620 130.0554 15.30181350    14
STARLINK-31040          
1 58722C 24002T   26113.59145833 -.00003319  00000+0 -11187-3 0  1139
2 58722  53.1590  21.4536 0001245  86.7806  96.5354 15.30193472    15
STARLINK-31033          
1 58723C 24002U   26113.55118056 -.00002268  00000+0 -76436-4 0  1134
2 58723  53.1601  21.5367 0001297  92.3642 281.2851 15.30196788    18
STARLINK-30893          
1 58724C 24002V   26113.57479167  .00009091  00000+0  30643-3 0  1138
2 58724  53.1582  21.6769 0001176  96.5721 285.0852 15.30184829    10
STARLINK-30856          
1 58725C 24002W   26113.60118056  .00043079  00000+0  14518-2 0  1136
2 58725  53.1607  21.2627 0001305  92.6559 219.8464 15.30173932    15
STARLINK-31115          
1 58729C 24005B   26113.55395833  .00041366  00000+0  14979-2 0  1135
2 58729  43.0035 326.7830 0001573 265.3853 334.3237 15.27564788    14
STARLINK-31180          
1 58732C 24005E   26113.53798611  .00047852  00000+0  17324-2 0  1131
2 58732  43.0017 326.4523 0001459 266.6644  68.9379 15.27568973    16
STARLINK-31164          
1 58733C 24005F   26113.60465278  .00024147  00000+0  87430-3 0  1138
2 58733  43.0043 325.7495 0001867 258.5740 218.5789 15.27576452    15
STARLINK-31152          
1 58734C 24005G   26113.53451389  .00045024  00000+0  16309-2 0  1132
2 58734  43.0044 326.1940 0001562 259.0622 170.7364 15.27553882    14
STARLINK-31157          
1 58735C 24005H   26113.56020833  .00038965  00000+0  14131-2 0  1139
2 58735  43.0039 326.0968 0001678 252.8681 297.1198 15.27517785    13
STARLINK-31076          
1 58736C 24005J   26113.58729167  .00037023  00000+0  13404-2 0  1134
2 58736  43.0025 325.9915 0001796 268.5181  49.3928 15.27573870    14
STARLINK-31101          
1 58737C 24005K   26113.59562500  .00033088  00000+0  11981-2 0  1137
2 58737  43.0011 326.0803 0001432 259.1875  48.0221 15.27570800    13
STARLINK-31108          
1 58738C 24005L   26113.53381944  .00046720  00000+0  16930-2 0  1139
2 58738  43.0016 326.3419 0001626 261.9650 100.3861 15.27540564    18
STARLINK-31042          
1 58739C 24005M   26113.54284722  .00047158  00000+0  17082-2 0  1132
2 58739  43.0006 326.4240 0001615 269.5998  85.6958 15.27552827    15
STARLINK-31159          
1 58740C 24005N   26113.61576389  .00018645  00000+0  67514-3 0  1130
2 58740  43.0043 325.6640 0001510 265.4448 279.9935 15.27577933    10
STARLINK-31148          
1 58741C 24005P   26113.54701389  .00039478  00000+0  14293-2 0  1135
2 58741  43.0040 326.1672 0001593 269.5787 214.8671 15.27571008    13
STARLINK-31151          
1 58742C 24005Q   26113.57270833  .00035335  00000+0  12804-2 0  1138
2 58742  43.0017 326.1207 0001565 257.5762 325.9037 15.27547535    19
STARLINK-31156          
1 58743C 24005R   26113.59562500  .00032561  00000+0  12095-2 0  1136
2 58743  43.0018 326.0382 0001546 257.6734  73.6272 15.26733851    18
STARLINK-31167          
1 58744C 24005S   26113.59562500  .00046809  00000+0  16955-2 0  1136
2 58744  42.9996 180.7022 0001481 273.3040   4.6166 15.27553084    16
STARLINK-31176          
1 58745C 24005T   26113.54701389 -.00003639  00000+0 -13191-3 0  1138
2 58745  43.0012 326.5033 0001329 262.6101  80.4990 15.27554786    17
STARLINK-31181          
1 58746C 24005U   26113.55465278  .00034993  00000+0  12673-2 0  1132
2 58746  43.0026 174.1498 0001599 291.0310  66.4207 15.27563765    14
STARLINK-31183          
1 58747C 24005V   26113.60118056  .00025660  00000+0  92904-3 0  1135
2 58747  43.0016 326.2993 0001368 254.9736 343.7540 15.27578721    17
STARLINK-31165          
1 58748C 24005W   26113.57270833  .00032771  00000+0  11870-2 0  1137
2 58748  43.0021 326.4055 0001518 256.2406 206.9672 15.27561138    11
STARLINK-31160          
1 58749C 24005X   26113.59493056  .00022663  00000+0  84197-3 0  1136
2 58749  43.0021 326.3624 0001348 253.8709 269.4064 15.26732855    17
STARLINK-31179          
1 58750C 24005Y   26113.58798611  .00024823  00000+0  92223-3 0  1131
2 58750  43.0014 326.3722 0001491 258.5224 264.7090 15.26731205    18
STARLINK-31127          
1 58765C 24011A   26113.60951389  .00049441  00000+0  16661-2 0  1134
2 58765  53.1580 165.0653 0001325  80.2963  49.1572 15.30171150    13
STARLINK-31114          
1 58766C 24011B   26113.56159722  .00013329  00000+0  44928-3 0  1135
2 58766  53.1591 163.2760 0001464  66.9143 109.0134 15.30182740    17
STARLINK-31140          
1 58767C 24011C   26113.54631944  .00039809  00000+0  13417-2 0  1134
2 58767  53.1575 165.2891 0001303  79.1303  96.9165 15.30172168    14
STARLINK-31146          
1 58769C 24011E   26113.56923611  .00040005  00000+0  13482-2 0  1135
2 58769  53.1573 165.1490 0001130  86.1010 233.7039 15.30173974    16
STARLINK-31143          
1 58770C 24011F   26113.60743056  .00050482  00000+0  17013-2 0  1139
2 58770  53.1569 164.9368 0000976  78.4452 109.3330 15.30169207    11
STARLINK-31135          
1 58771C 24011G   26113.57409722  .00046070  00000+0  15526-2 0  1130
2 58771  53.1587 163.1019 0001318  80.9117 222.0475 15.30170057    11
STARLINK-31136          
1 58772C 24011H   26113.57895833  .00045193  00000+0  15231-2 0  1131
2 58772  53.1577 165.1682 0001227  78.9173 259.5775 15.30171748    13
STARLINK-31073          
1 58773C 24011J   26113.60812500  .00049927  00000+0  16830-2 0  1131
2 58773  53.1584 165.1048 0001204  78.9044  25.3893 15.30162144    10
STARLINK-31122          
1 58774C 24011K   26113.56993056  .00051895  00000+0  17489-2 0  1131
2 58774  53.1592 165.3447 0001420  77.8356 141.0973 15.30168512    19
STARLINK-31123          
1 58775C 24011L   26113.56506944  .00037403  00000+0  12607-2 0  1134
2 58775  53.1570 165.0725 0001171  81.4554 261.9218 15.30170433    15
STARLINK-31117          
1 58776C 24011M   26113.60673611  .00043861  00000+0  14781-2 0  1136
2 58776  53.1587 165.2510 0001308  79.0026 302.0886 15.30173249    13
STARLINK-31132          
1 58777C 24011N   26113.60534722 -.00018721  00000+0 -63103-3 0  1138
2 58777  53.1579  74.9049 0001429  93.4347 348.5296 15.30196877    10
